[{"OBJECT_NAME":"ONEWEB-0311","OBJECT_ID":"2021-075Y","EPOCH":"2026-04-04T05:02:13.519680","MEAN_MOTION":13.17649421,"ECCENTRICITY":0.0001346,"INCLINATION":87.9193,"RA_OF_ASC_NODE":20.5504,"ARG_OF_PERICENTER":79.8362,"MEAN_ANOMALY":280.2921,"EPHEMERIS_TYPE":0,"CLASSIFICATION_TYPE":"U","NORAD_CAT_ID":49097,"ELEMENT_SET_NO":999,"REV_AT_EPOCH":22388,"BSTAR":0.00017617,"MEAN_MOTION_DOT":8.1e-07,"MEAN_MOTION_DDOT":0.0},{"OBJECT_NAME":"ONEWEB-0312","OBJECT_ID":"2021-075Z","EPOCH":"2026-04-04T05:24:07.093440","MEAN_MOTION":13.17650588,"ECCENTRICITY":0.0001642,"INCLINATION":87.9184,"RA_OF_ASC_NODE":20.563,"ARG_OF_PERICENTER":68.9859,"MEAN_ANOMALY":291.1448,"EPHEMERIS_TYPE":0,"CLASSIFICATION_TYPE":"U","NORAD_CAT_ID":49098,"ELEMENT_SET_NO":999,"REV_AT_EPOCH":22386,"BSTAR":0.00026434,"MEAN_MOTION_DOT":1.16e-06,"MEAN_MOTION_DDOT":0.0},{"OBJECT_NAME":"ONEWEB-0313","OBJECT_ID":"2021-075AA","EPOCH":"2026-04-04T05:31:12.316224","MEAN_MOTION":13.17650795,"ECCENTRICITY":0.0001666,"INCLINATION":87.9184,"RA_OF_ASC_NODE":20.5685,"ARG_OF_PERICENTER":77.7158,"MEAN_ANOMALY":282.416,"EPHEMERIS_TYPE":0,"CLASSIFICATION_TYPE":"U","NORAD_CAT_ID":49099,"ELEMENT_SET_NO":999,"REV_AT_EPOCH":22385,"BSTAR":0.00025180000000000005,"MEAN_MOTION_DOT":1.11e-06,"MEAN_MOTION_DDOT":0.0},{"OBJECT_NAME":"ONEWEB-0314","OBJECT_ID":"2021-075AB","EPOCH":"2026-04-04T06:32:08.608704","MEAN_MOTION":13.17651122,"ECCENTRICITY":0.000156,"INCLINATION":87.9191,"RA_OF_ASC_NODE":20.525,"ARG_OF_PERICENTER":67.2914,"MEAN_ANOMALY":292.8382,"EPHEMERIS_TYPE":0,"CLASSIFICATION_TYPE":"U","NORAD_CAT_ID":49100,"ELEMENT_SET_NO":999,"REV_AT_EPOCH":22383,"BSTAR":0.00018612999999999998,"MEAN_MOTION_DOT":8.5e-07,"MEAN_MOTION_DDOT":0.0},{"OBJECT_NAME":"ONEWEB-0315","OBJECT_ID":"2021-075AC","EPOCH":"2026-04-04T06:12:09.584064","MEAN_MOTION":13.12446329,"ECCENTRICITY":0.000142,"INCLINATION":87.9017,"RA_OF_ASC_NODE":5.3236,"ARG_OF_PERICENTER":84.9009,"MEAN_ANOMALY":275.2281,"EPHEMERIS_TYPE":0,"CLASSIFICATION_TYPE":"U","NORAD_CAT_ID":49101,"ELEMENT_SET_NO":999,"REV_AT_EPOCH":22547,"BSTAR":0.00023739,"MEAN_MOTION_DOT":9.8e-07,"MEAN_MOTION_DDOT":0.0},{"OBJECT_NAME":"ONEWEB-0316","OBJECT_ID":"2021-075AD","EPOCH":"2026-04-04T06:07:25.395456","MEAN_MOTION":13.18688301,"ECCENTRICITY":0.0001679,"INCLINATION":87.9229,"RA_OF_ASC_NODE":350.1567,"ARG_OF_PERICENTER":80.6714,"MEAN_ANOMALY":279.4608,"EPHEMERIS_TYPE":0,"CLASSIFICATION_TYPE":"U","NORAD_CAT_ID":49102,"ELEMENT_SET_NO":999,"REV_AT_EPOCH":22746,"BSTAR":0.00023609,"MEAN_MOTION_DOT":1.06e-06,"MEAN_MOTION_DDOT":0.0},{"OBJECT_NAME":"ONEWEB-0317","OBJECT_ID":"2021-075AE","EPOCH":"2026-04-04T06:17:02.084352","MEAN_MOTION":13.12445871,"ECCENTRICITY":0.0002498,"INCLINATION":87.9019,"RA_OF_ASC_NODE":5.3456,"ARG_OF_PERICENTER":71.0446,"MEAN_ANOMALY":289.0953,"EPHEMERIS_TYPE":0,"CLASSIFICATION_TYPE":"U","NORAD_CAT_ID":49103,"ELEMENT_SET_NO":999,"REV_AT_EPOCH":22549,"BSTAR":0.00026014,"MEAN_MOTION_DOT":1.06e-06,"MEAN_MOTION_DDOT":0.0},{"OBJECT_NAME":"ONEWEB-0318","OBJECT_ID":"2021-075AF","EPOCH":"2026-04-04T06:02:40.357536","MEAN_MOTION":13.18689009,"ECCENTRICITY":0.00015,"INCLINATION":87.9237,"RA_OF_ASC_NODE":350.1524,"ARG_OF_PERICENTER":83.3512,"MEAN_ANOMALY":276.7791,"EPHEMERIS_TYPE":0,"CLASSIFICATION_TYPE":"U","NORAD_CAT_ID":49104,"ELEMENT_SET_NO":999,"REV_AT_EPOCH":22742,"BSTAR":0.00025287,"MEAN_MOTION_DOT":1.13e-06,"MEAN_MOTION_DDOT":0.0},{"OBJECT_NAME":"ONEWEB-0319","OBJECT_ID":"2021-075AG","EPOCH":"2026-04-04T05:04:39.391392","MEAN_MOTION":13.17651506,"ECCENTRICITY":0.0001318,"INCLINATION":87.9183,"RA_OF_ASC_NODE":20.5597,"ARG_OF_PERICENTER":89.346,"MEAN_ANOMALY":270.7822,"EPHEMERIS_TYPE":0,"CLASSIFICATION_TYPE":"U","NORAD_CAT_ID":49105,"ELEMENT_SET_NO":999,"REV_AT_EPOCH":22386,"BSTAR":0.00014942,"MEAN_MOTION_DOT":7.1e-07,"MEAN_MOTION_DDOT":0.0},{"OBJECT_NAME":"ONEWEB-0323","OBJECT_ID":"2021-075AH","EPOCH":"2026-04-04T05:50:12.985440","MEAN_MOTION":13.12445988,"ECCENTRICITY":0.0001184,"INCLINATION":87.9019,"RA_OF_ASC_NODE":5.331,"ARG_OF_PERICENTER":82.6751,"MEAN_ANOMALY":277.4512,"EPHEMERIS_TYPE":0,"CLASSIFICATION_TYPE":"U","NORAD_CAT_ID":49106,"ELEMENT_SET_NO":999,"REV_AT_EPOCH":22485,"BSTAR":-0.00084022,"MEAN_MOTION_DOT":-2.9e-06,"MEAN_MOTION_DDOT":0.0},{"OBJECT_NAME":"ONEWEB-0329","OBJECT_ID":"2021-075AJ","EPOCH":"2026-04-04T05:16:49.686528","MEAN_MOTION":13.17650021,"ECCENTRICITY":0.0001707,"INCLINATION":87.9184,"RA_OF_ASC_NODE":20.5585,"ARG_OF_PERICENTER":74.8413,"MEAN_ANOMALY":285.2907,"EPHEMERIS_TYPE":0,"CLASSIFICATION_TYPE":"U","NORAD_CAT_ID":49107,"ELEMENT_SET_NO":999,"REV_AT_EPOCH":22384,"BSTAR":0.00010355000000000001,"MEAN_MOTION_DOT":5.3e-07,"MEAN_MOTION_DDOT":0.0},{"OBJECT_NAME":"ONEWEB-0330","OBJECT_ID":"2021-075AK","EPOCH":"2026-04-04T05:51:02.597184","MEAN_MOTION":13.17648093,"ECCENTRICITY":0.0001772,"INCLINATION":87.9186,"RA_OF_ASC_NODE":20.5726,"ARG_OF_PERICENTER":69.9349,"MEAN_ANOMALY":290.1973,"EPHEMERIS_TYPE":0,"CLASSIFICATION_TYPE":"U","NORAD_CAT_ID":49108,"ELEMENT_SET_NO":999,"REV_AT_EPOCH":22388,"BSTAR":0.00016666,"MEAN_MOTION_DOT":7.8e-07,"MEAN_MOTION_DDOT":0.0},{"OBJECT_NAME":"ONEWEB-0292","OBJECT_ID":"2021-083A","EPOCH":"2026-04-04T04:43:50.520864","MEAN_MOTION":13.13469831,"ECCENTRICITY":0.0001562,"INCLINATION":87.8992,"RA_OF_ASC_NODE":334.9781,"ARG_OF_PERICENTER":84.3956,"MEAN_ANOMALY":275.7351,"EPHEMERIS_TYPE":0,"CLASSIFICATION_TYPE":"U","NORAD_CAT_ID":49186,"ELEMENT_SET_NO":999,"REV_AT_EPOCH":22121,"BSTAR":0.0010131,"MEAN_MOTION_DOT":3.83e-06,"MEAN_MOTION_DDOT":0.0},{"OBJECT_NAME":"ONEWEB-0303","OBJECT_ID":"2021-083B","EPOCH":"2026-04-04T05:57:55.357632","MEAN_MOTION":13.1868929,"ECCENTRICITY":0.0001565,"INCLINATION":87.9232,"RA_OF_ASC_NODE":350.1556,"ARG_OF_PERICENTER":80.6172,"MEAN_ANOMALY":279.5137,"EPHEMERIS_TYPE":0,"CLASSIFICATION_TYPE":"U","NORAD_CAT_ID":49187,"ELEMENT_SET_NO":999,"REV_AT_EPOCH":22023,"BSTAR":0.00027734,"MEAN_MOTION_DOT":1.22e-06,"MEAN_MOTION_DDOT":0.0},{"OBJECT_NAME":"ONEWEB-0306","OBJECT_ID":"2021-083C","EPOCH":"2026-04-04T05:43:41.139840","MEAN_MOTION":13.18684489,"ECCENTRICITY":0.0001998,"INCLINATION":87.9238,"RA_OF_ASC_NODE":350.1415,"ARG_OF_PERICENTER":78.5832,"MEAN_ANOMALY":281.5524,"EPHEMERIS_TYPE":0,"CLASSIFICATION_TYPE":"U","NORAD_CAT_ID":49188,"ELEMENT_SET_NO":999,"REV_AT_EPOCH":22027,"BSTAR":-0.00010977000000000001,"MEAN_MOTION_DOT":-3e-07,"MEAN_MOTION_DDOT":0.0},{"OBJECT_NAME":"ONEWEB-0307","OBJECT_ID":"2021-083D","EPOCH":"2026-04-04T04:35:17.222784","MEAN_MOTION":13.13471352,"ECCENTRICITY":0.0001581,"INCLINATION":87.9001,"RA_OF_ASC_NODE":334.9684,"ARG_OF_PERICENTER":80.082,"MEAN_ANOMALY":280.0487,"EPHEMERIS_TYPE":0,"CLASSIFICATION_TYPE":"U","NORAD_CAT_ID":49189,"ELEMENT_SET_NO":999,"REV_AT_EPOCH":22121,"BSTAR":0.0011176,"MEAN_MOTION_DOT":4.21e-06,"MEAN_MOTION_DDOT":0.0}]