ONEWEB-0311             
1 49097U 21075Y   26094.20987870  .00000081  00000+0  17617-3 0  9999
2 49097  87.9193  20.5504 0001346  79.8362 280.2921 13.17649421223888
ONEWEB-0312             
1 49098U 21075Z   26094.22508210  .00000116  00000+0  26434-3 0  9995
2 49098  87.9184  20.5630 0001642  68.9859 291.1448 13.17650588223867
ONEWEB-0313             
1 49099U 21075AA  26094.23000366  .00000111  00000+0  25180-3 0  9998
2 49099  87.9184  20.5685 0001666  77.7158 282.4160 13.17650795223857
ONEWEB-0314             
1 49100U 21075AB  26094.27232186  .00000085  00000+0  18613-3 0  9995
2 49100  87.9191  20.5250 0001560  67.2914 292.8382 13.17651122223837
ONEWEB-0315             
1 49101U 21075AC  26094.25844426  .00000098  00000+0  23739-3 0  9999
2 49101  87.9017   5.3236 0001420  84.9009 275.2281 13.12446329225477
ONEWEB-0316             
1 49102U 21075AD  26094.25515504  .00000106  00000+0  23609-3 0  9998
2 49102  87.9229 350.1567 0001679  80.6714 279.4608 13.18688301227467
ONEWEB-0317             
1 49103U 21075AE  26094.26182968  .00000106  00000+0  26014-3 0  9997
2 49103  87.9019   5.3456 0002498  71.0446 289.0953 13.12445871225495
ONEWEB-0318             
1 49104U 21075AF  26094.25185599  .00000113  00000+0  25287-3 0  9999
2 49104  87.9237 350.1524 0001500  83.3512 276.7791 13.18689009227425
ONEWEB-0319             
1 49105U 21075AG  26094.21156703  .00000071  00000+0  14942-3 0  9990
2 49105  87.9183  20.5597 0001318  89.3460 270.7822 13.17651506223862
ONEWEB-0323             
1 49106U 21075AH  26094.24320585 -.00000290  00000+0 -84022-3 0  9996
2 49106  87.9019   5.3310 0001184  82.6751 277.4512 13.12445988224855
ONEWEB-0329             
1 49107U 21075AJ  26094.22001952  .00000053  00000+0  10355-3 0  9992
2 49107  87.9184  20.5585 0001707  74.8413 285.2907 13.17650021223845
ONEWEB-0330             
1 49108U 21075AK  26094.24378006  .00000078  00000+0  16666-3 0  9990
2 49108  87.9186  20.5726 0001772  69.9349 290.1973 13.17648093223888
ONEWEB-0292             
1 49186U 21083A   26094.19711251  .00000383  00000+0  10131-2 0  9991
2 49186  87.8992 334.9781 0001562  84.3956 275.7351 13.13469831221214
ONEWEB-0303             
1 49187U 21083B   26094.24855738  .00000122  00000+0  27734-3 0  9996
2 49187  87.9232 350.1556 0001565  80.6172 279.5137 13.18689290220238
ONEWEB-0306             
1 49188U 21083C   26094.23867060 -.00000030  00000+0 -10977-3 0  9998
2 49188  87.9238 350.1415 0001998  78.5832 281.5524 13.18684489220270
ONEWEB-0307             
1 49189U 21083D   26094.19117156  .00000421  00000+0  11176-2 0  9991
2 49189  87.9001 334.9684 0001581  80.0820 280.0487 13.13471352221215
